start=new Date('2023-02-26T00:00:00.000Z').valueOf();
sats=[{"TLE_LINE1":"1 53535U 22101J   23056.13418974  .00007527  00000-0  49043-3 0  9994","COUNTRY_CODE":"US","EPOCH":"2023-02-25T03:13:13.993536","FILE":"3837605","CLASSIFICATION_TYPE":"U","CENTER_NAME":"EARTH","OBJECT_ID":"2022-101J","RCS_SIZE":"LARGE","LAUNCH_DATE":"2022-08-19","GP_ID":"226860135","TLE_LINE2":"2 53535  53.2171  10.6234 0001543  88.5960 271.5209 15.08846554 28818","REF_FRAME":"TEME","PERIAPSIS":"538.658","MEAN_MOTION":"15.08846554","MEAN_MOTION_DOT":"0.00007527","ELEMENT_SET_NO":"999","NORAD_CAT_ID":"53535","SEMIMAJOR_AXIS":"6917.860","DECAY_DATE":null,"TIME_SYSTEM":"UTC","MEAN_ELEMENT_THEORY":"SGP4","REV_AT_EPOCH":"2881","INCLINATION":"53.2171","PERIOD":"95.437","MEAN_ANOMALY":"271.5209","OBJECT_NAME":"STARLINK-4138","SITE":"AFETR","MEAN_MOTION_DDOT":"0.0000000000000","ARG_OF_PERICENTER":"88.5960","ECCENTRICITY":"0.00015430","EPHEMERIS_TYPE":"0","BSTAR":"0.00049043000000","OBJECT_TYPE":"PAYLOAD","RA_OF_ASC_NODE":"10.6234","APOAPSIS":"540.793"},{"RCS_SIZE":"LARGE","LAUNCH_DATE":"2022-08-19","GP_ID":"226859397","CENTER_NAME":"EARTH","OBJECT_ID":"2022-101K","REF_FRAME":"TEME","PERIAPSIS":"538.975","TLE_LINE2":"2 53536  53.2184   0.1241 0001081  89.5146 270.5970 15.08847385 28962","COUNTRY_CODE":"US","EPOCH":"2023-02-25T06:04:08.424192","TLE_LINE1":"1 53536U 22101K   23056.25287528  .00008391  00000-0  54455-3 0  9990","FILE":"3837605","CLASSIFICATION_TYPE":"U","EPHEMERIS_TYPE":"0","ECCENTRICITY":"0.00010810","BSTAR":"0.00054455000000","OBJECT_TYPE":"PAYLOAD","RA_OF_ASC_NODE":"0.1241","OBJECT_NAME":"STARLINK-4053","MEAN_MOTION_DDOT":"0.0000000000000","SITE":"AFETR","ARG_OF_PERICENTER":"89.5146","APOAPSIS":"540.471","DECAY_DATE":null,"TIME_SYSTEM":"UTC","MEAN_ELEMENT_THEORY":"SGP4","MEAN_MOTION":"15.08847385","MEAN_MOTION_DOT":"0.00008391","ELEMENT_SET_NO":"999","SEMIMAJOR_AXIS":"6917.858","NORAD_CAT_ID":"53536","PERIOD":"95.437","MEAN_ANOMALY":"270.5970","REV_AT_EPOCH":"2896","INCLINATION":"53.2184"},{"APOAPSIS":"540.614","SITE":"AFETR","MEAN_MOTION_DDOT":"0.0000000000000","ARG_OF_PERICENTER":"100.3876","OBJECT_NAME":"STARLINK-4120","BSTAR":"0.00064503000000","RA_OF_ASC_NODE":"10.0117","OBJECT_TYPE":"PAYLOAD","EPHEMERIS_TYPE":"0","ECCENTRICITY":"0.00012770","INCLINATION":"53.2173","REV_AT_EPOCH":"2883","MEAN_ANOMALY":"259.7260","PERIOD":"95.437","ELEMENT_SET_NO":"999","SEMIMAJOR_AXIS":"6917.866","NORAD_CAT_ID":"53537","MEAN_MOTION":"15.08844694","MEAN_MOTION_DOT":"0.00009994","MEAN_ELEMENT_THEORY":"SGP4","DECAY_DATE":null,"TIME_SYSTEM":"UTC","TLE_LINE2":"2 53537  53.2173  10.0117 0001277 100.3876 259.7260 15.08844694 28839","REF_FRAME":"TEME","PERIAPSIS":"538.848","OBJECT_ID":"2022-101L","CENTER_NAME":"EARTH","LAUNCH_DATE":"2022-08-19","GP_ID":"226866493","RCS_SIZE":"LARGE","FILE":"3837916","CLASSIFICATION_TYPE":"U","TLE_LINE1":"1 53537U 22101L   23056.27035061  .00009994  00000-0  64503-3 0  9991","COUNTRY_CODE":"US","EPOCH":"2023-02-25T06:29:18.292704"},{"ELEMENT_SET_NO":"999","SEMIMAJOR_AXIS":"6917.869","NORAD_CAT_ID":"53538","MEAN_MOTION":"15.08843886","MEAN_MOTION_DOT":"0.00003464","MEAN_ELEMENT_THEORY":"SGP4","DECAY_DATE":null,"TIME_SYSTEM":"UTC","INCLINATION":"53.2192","REV_AT_EPOCH":"2963","MEAN_ANOMALY":"266.3401","PERIOD":"95.437","MEAN_MOTION_DDOT":"0.0000000000000","SITE":"AFETR","ARG_OF_PERICENTER":"93.7712","OBJECT_NAME":"STARLINK-4118","BSTAR":"0.00023559000000","RA_OF_ASC_NODE":"0.7127","OBJECT_TYPE":"PAYLOAD","ECCENTRICITY":"0.00010530","EPHEMERIS_TYPE":"0","APOAPSIS":"540.462","TLE_LINE1":"1 53538U 22101M   23056.11303072  .00003464  00000-0  23559-3 0  9997","COUNTRY_CODE":"US","EPOCH":"2023-02-25T02:42:45.854208","FILE":"3837605","CLASSIFICATION_TYPE":"U","OBJECT_ID":"2022-101M","CENTER_NAME":"EARTH","LAUNCH_DATE":"2022-08-19","GP_ID":"226860398","RCS_SIZE":"LARGE","TLE_LINE2":"2 53538  53.2192   0.7127 0001053  93.7712 266.3401 15.08843886 29636","REF_FRAME":"TEME","PERIAPSIS":"539.005"},{"APOAPSIS":"540.471","EPHEMERIS_TYPE":"0","ECCENTRICITY":"0.00010450","RA_OF_ASC_NODE":"8.2611","OBJECT_TYPE":"PAYLOAD","BSTAR":"0.00018382000000","OBJECT_NAME":"STARLINK-4123","ARG_OF_PERICENTER":"97.6071","SITE":"AFETR","MEAN_MOTION_DDOT":"0.0000000000000","PERIOD":"95.438","MEAN_ANOMALY":"262.5040","REV_AT_EPOCH":"2889","INCLINATION":"53.2165","DECAY_DATE":null,"TIME_SYSTEM":"UTC","MEAN_ELEMENT_THEORY":"SGP4","MEAN_MOTION_DOT":"0.00002639","MEAN_MOTION":"15.08839205","SEMIMAJOR_AXIS":"6917.883","NORAD_CAT_ID":"53539","ELEMENT_SET_NO":"999","PERIAPSIS":"539.025","REF_FRAME":"TEME","TLE_LINE2":"2 53539  53.2165   8.2611 0001045  97.6071 262.5040 15.08839205 28894","RCS_SIZE":"LARGE","GP_ID":"226916727","LAUNCH_DATE":"2022-08-19","CENTER_NAME":"EARTH","OBJECT_ID":"2022-101N","CLASSIFICATION_TYPE":"U","FILE":"3839003","EPOCH":"2023-02-25T15:51:01.257408","COUNTRY_CODE":"US","TLE_LINE1":"1 53539U 22101N   23056.66043122  .00002639  00000-0  18382-3 0  9996"},{"MEAN_MOTION_DDOT":"0.0000000000000","SITE":"AFETR","ARG_OF_PERICENTER":"88.8356","OBJECT_NAME":"STARLINK-4486","BSTAR":"0.00030454000000","OBJECT_TYPE":"PAYLOAD","RA_OF_ASC_NODE":"0.7299","ECCENTRICITY":"0.00012690","EPHEMERIS_TYPE":"0","APOAPSIS":"540.603","ELEMENT_SET_NO":"999","SEMIMAJOR_AXIS":"6917.860","NORAD_CAT_ID":"53540","MEAN_MOTION":"15.08846659","MEAN_MOTION_DOT":"0.00004563","MEAN_ELEMENT_THEORY":"SGP4","TIME_SYSTEM":"UTC","DECAY_DATE":null,"INCLINATION":"53.2182","REV_AT_EPOCH":"2963","MEAN_ANOMALY":"271.2782","PERIOD":"95.437","OBJECT_ID":"2022-101P","CENTER_NAME":"EARTH","LAUNCH_DATE":"2022-08-19","GP_ID":"226858897","RCS_SIZE":"LARGE","TLE_LINE2":"2 53540  53.2182   0.7299 0001269  88.8356 271.2782 15.08846659 29634","REF_FRAME":"TEME","PERIAPSIS":"538.847","TLE_LINE1":"1 53540U 22101P   23056.10935081  .00004563  00000-0  30454-3 0  9993","COUNTRY_CODE":"US","EPOCH":"2023-02-25T02:37:27.909984","CLASSIFICATION_TYPE":"U","FILE":"3837605"},{"EPHEMERIS_TYPE":"0","ECCENTRICITY":"0.00008170","OBJECT_TYPE":"PAYLOAD","RA_OF_ASC_NODE":"10.6739","BSTAR":"0.00016809000000","OBJECT_NAME":"STARLINK-4485","ARG_OF_PERICENTER":"107.5840","SITE":"AFETR","MEAN_MOTION_DDOT":"0.0000000000000","APOAPSIS":"540.310","TIME_SYSTEM":"UTC","DECAY_DATE":null,"MEAN_ELEMENT_THEORY":"SGP4","MEAN_MOTION_DOT":"0.00002388","MEAN_MOTION":"15.08840226","SEMIMAJOR_AXIS":"6917.880","NORAD_CAT_ID":"53541","ELEMENT_SET_NO":"999","PERIOD":"95.438","MEAN_ANOMALY":"252.5241","REV_AT_EPOCH":"2950","INCLINATION":"53.2177","RCS_SIZE":"LARGE","GP_ID":"226859648","LAUNCH_DATE":"2022-08-19","CENTER_NAME":"EARTH","OBJECT_ID":"2022-101Q","PERIAPSIS":"539.180","REF_FRAME":"TEME","TLE_LINE2":"2 53541  53.2177  10.6739 0000817 107.5840 252.5241 15.08840226 29505","EPOCH":"2023-02-25T02:57:19.823904","COUNTRY_CODE":"US","TLE_LINE1":"1 53541U 22101Q   23056.12314611  .00002388  00000-0  16809-3 0  9997","FILE":"3837605","CLASSIFICATION_TYPE":"U"},{"MEAN_ELEMENT_THEORY":"SGP4","DECAY_DATE":null,"TIME_SYSTEM":"UTC","ELEMENT_SET_NO":"999","SEMIMAJOR_AXIS":"6917.893","NORAD_CAT_ID":"53542","MEAN_MOTION":"15.08835866","MEAN_MOTION_DOT":"0.00012708","MEAN_ANOMALY":"257.0848","PERIOD":"95.438","INCLINATION":"53.2176","REV_AT_EPOCH":"2965","BSTAR":"0.00081518000000","OBJECT_TYPE":"PAYLOAD","RA_OF_ASC_NODE":"0.1698","EPHEMERIS_TYPE":"0","ECCENTRICITY":"0.00016170","MEAN_MOTION_DDOT":"0.0000000000000","SITE":"AFETR","ARG_OF_PERICENTER":"103.0325","OBJECT_NAME":"STARLINK-4489","APOAPSIS":"540.877","COUNTRY_CODE":"US","EPOCH":"2023-02-25T05:37:38.215776","TLE_LINE1":"1 53542U 22101R   23056.23447009  .00012708  00000-0  81518-3 0  9994","CLASSIFICATION_TYPE":"U","FILE":"3837605","LAUNCH_DATE":"2022-08-19","GP_ID":"226859898","RCS_SIZE":"LARGE","OBJECT_ID":"2022-101R","CENTER_NAME":"EARTH","REF_FRAME":"TEME","PERIAPSIS":"538.639","TLE_LINE2":"2 53542  53.2176   0.1698 0001617 103.0325 257.0848 15.08835866 29654"},{"CLASSIFICATION_TYPE":"U","FILE":"3837904","COUNTRY_CODE":"US","EPOCH":"2023-02-25T05:58:50.746080","TLE_LINE1":"1 53543U 22101S   23056.24919845 -.00000805  00000-0 -32471-4 0  9990","REF_FRAME":"TEME","PERIAPSIS":"538.849","TLE_LINE2":"2 53543  53.2198   0.1667 0001295  91.3153 268.7988 15.08840019 28968","LAUNCH_DATE":"2022-08-19","GP_ID":"226867005","RCS_SIZE":"LARGE","OBJECT_ID":"2022-101S","CENTER_NAME":"EARTH","MEAN_ANOMALY":"268.7988","PERIOD":"95.438","INCLINATION":"53.2198","REV_AT_EPOCH":"2896","MEAN_ELEMENT_THEORY":"SGP4","TIME_SYSTEM":"UTC","DECAY_DATE":null,"ELEMENT_SET_NO":"999","SEMIMAJOR_AXIS":"6917.880","NORAD_CAT_ID":"53543","MEAN_MOTION":"15.08840019","MEAN_MOTION_DOT":"-0.00000805","APOAPSIS":"540.641","BSTAR":"-0.00003247100000","RA_OF_ASC_NODE":"0.1667","OBJECT_TYPE":"PAYLOAD","ECCENTRICITY":"0.00012950","EPHEMERIS_TYPE":"0","SITE":"AFETR","MEAN_MOTION_DDOT":"0.0000000000000","ARG_OF_PERICENTER":"91.3153","OBJECT_NAME":"STARLINK-4297"},{"TIME_SYSTEM":"UTC","DECAY_DATE":null,"MEAN_ELEMENT_THEORY":"SGP4","MEAN_MOTION_DOT":"-0.00000301","MEAN_MOTION":"15.08835144","SEMIMAJOR_AXIS":"6917.895","NORAD_CAT_ID":"53544","ELEMENT_SET_NO":"999","PERIOD":"95.438","MEAN_ANOMALY":"271.6726","REV_AT_EPOCH":"2962","INCLINATION":"53.2186","ECCENTRICITY":"0.00009840","EPHEMERIS_TYPE":"0","OBJECT_TYPE":"PAYLOAD","RA_OF_ASC_NODE":"0.4995","BSTAR":"-0.00000082358000","OBJECT_NAME":"STARLINK-4303","ARG_OF_PERICENTER":"88.4379","SITE":"AFETR","MEAN_MOTION_DDOT":"0.0000000000000","APOAPSIS":"540.441","EPOCH":"2023-02-25T03:51:39.196512","COUNTRY_CODE":"US","TLE_LINE1":"1 53544U 22101T   23056.16087033 -.00000301  00000-0 -82358-6 0  9999","CLASSIFICATION_TYPE":"U","FILE":"3837605","RCS_SIZE":"LARGE","GP_ID":"226859398","LAUNCH_DATE":"2022-08-19","CENTER_NAME":"EARTH","OBJECT_ID":"2022-101T","PERIAPSIS":"539.080","REF_FRAME":"TEME","TLE_LINE2":"2 53544  53.2186   0.4995 0000984  88.4379 271.6726 15.08835144 29624"}];
